TYVAK-0172              
1 46267U 20059C   26068.62538449  .00278441  00000+0  21652-2 0  9997
2 46267  97.7214 311.0561 0003543  67.1132 293.0503 15.70916107303116
STARLINK-11632 [DTC]    
1 63108U 25039E   26068.49736705  .00274501  00000+0  20587-2 0  9992
2 63108  42.9992 238.1445 0001027 244.4077 115.6684 15.71003521 59583
